start=new Date('2021-11-17T00:00:00.000Z').valueOf();
sats=[{"SITE":"AFETR","RA_OF_ASC_NODE":"190.1309","ELEMENT_SET_NO":"999","GP_ID":"189881505","MEAN_MOTION_DDOT":"0.0000000000000","PERIAPSIS":"545.858","OBJECT_NAME":"STARLINK-1922","APOAPSIS":"548.582","INCLINATION":"53.0537","SEMIMAJOR_AXIS":"6925.355","CLASSIFICATION_TYPE":"U","FILE":"3216827","MEAN_ANOMALY":"281.6388","BSTAR":"-0.00000803540000","REF_FRAME":"TEME","MEAN_MOTION_DOT":"-0.00000401","TLE_LINE2":"2 46753  53.0537 190.1309 0001967  78.4822 281.6388 15.06397821 59357","ARG_OF_PERICENTER":"78.4822","OBJECT_TYPE":"PAYLOAD","COUNTRY_CODE":"US","REV_AT_EPOCH":"5935","PERIOD":"95.592","NORAD_CAT_ID":"46753","MEAN_ELEMENT_THEORY":"SGP4","EPOCH":"2021-11-16T02:52:53.391360","CENTER_NAME":"EARTH","TIME_SYSTEM":"UTC","OBJECT_ID":"2020-074Q","LAUNCH_DATE":"2020-10-24","RCS_SIZE":"LARGE","ECCENTRICITY":"0.00019670","TLE_LINE1":"1 46753U 20074Q   21320.12006240 -.00000401  00000-0 -80354-5 0  9993","EPHEMERIS_TYPE":"0","DECAY_DATE":null,"MEAN_MOTION":"15.06397821"},{"CENTER_NAME":"EARTH","TIME_SYSTEM":"UTC","EPOCH":"2021-11-16T03:03:31.852800","MEAN_ELEMENT_THEORY":"SGP4","NORAD_CAT_ID":"46754","PERIOD":"95.592","OBJECT_TYPE":"PAYLOAD","COUNTRY_CODE":"US","REV_AT_EPOCH":"5935","ARG_OF_PERICENTER":"65.6365","MEAN_MOTION_DOT":"0.00003081","TLE_LINE2":"2 46754  53.0526 190.1036 0001760  65.6365 294.4807 15.06398040 59356","MEAN_ANOMALY":"294.4807","FILE":"3216827","REF_FRAME":"TEME","BSTAR":"0.00022569000000","CLASSIFICATION_TYPE":"U","APOAPSIS":"548.438","INCLINATION":"53.0526","SEMIMAJOR_AXIS":"6925.355","PERIAPSIS":"546.001","MEAN_MOTION_DDOT":"0.0000000000000","OBJECT_NAME":"STARLINK-1923","GP_ID":"189882263","ELEMENT_SET_NO":"999","SITE":"AFETR","RA_OF_ASC_NODE":"190.1036","MEAN_MOTION":"15.06398040","DECAY_DATE":null,"EPHEMERIS_TYPE":"0","TLE_LINE1":"1 46754U 20074R   21320.12745200  .00003081  00000-0  22569-3 0  9997","RCS_SIZE":"LARGE","ECCENTRICITY":"0.00017600","LAUNCH_DATE":"2020-10-24","OBJECT_ID":"2020-074R"},{"MEAN_ELEMENT_THEORY":"SGP4","CENTER_NAME":"EARTH","TIME_SYSTEM":"UTC","EPOCH":"2021-11-16T03:10:48.227232","COUNTRY_CODE":"US","OBJECT_TYPE":"PAYLOAD","REV_AT_EPOCH":"5928","ARG_OF_PERICENTER":"73.0487","NORAD_CAT_ID":"46755","PERIOD":"95.593","CLASSIFICATION_TYPE":"U","APOAPSIS":"548.303","INCLINATION":"53.0532","SEMIMAJOR_AXIS":"6925.371","MEAN_MOTION_DOT":"-0.00000553","TLE_LINE2":"2 46755  53.0532 195.0856 0001541  73.0487 287.0670 15.06392582 59286","FILE":"3216827","MEAN_ANOMALY":"287.0670","BSTAR":"-0.00001823200000","REF_FRAME":"TEME","ELEMENT_SET_NO":"999","GP_ID":"189882013","SITE":"AFETR","RA_OF_ASC_NODE":"195.0856","MEAN_MOTION_DDOT":"0.0000000000000","PERIAPSIS":"546.169","OBJECT_NAME":"STARLINK-1924","DECAY_DATE":null,"MEAN_MOTION":"15.06392582","TLE_LINE1":"1 46755U 20074S   21320.13250263 -.00000553  00000-0 -18232-4 0  9995","EPHEMERIS_TYPE":"0","LAUNCH_DATE":"2020-10-24","OBJECT_ID":"2020-074S","RCS_SIZE":"LARGE","ECCENTRICITY":"0.00015410"},{"ARG_OF_PERICENTER":"87.0239","REV_AT_EPOCH":"5932","COUNTRY_CODE":"US","OBJECT_TYPE":"PAYLOAD","PERIOD":"95.592","NORAD_CAT_ID":"46756","MEAN_ELEMENT_THEORY":"SGP4","EPOCH":"2021-11-16T09:20:59.185824","TIME_SYSTEM":"UTC","CENTER_NAME":"EARTH","RA_OF_ASC_NODE":"193.9150","SITE":"AFETR","ELEMENT_SET_NO":"999","GP_ID":"189880761","OBJECT_NAME":"STARLINK-1925","MEAN_MOTION_DDOT":"0.0000000000000","PERIAPSIS":"546.069","SEMIMAJOR_AXIS":"6925.364","APOAPSIS":"548.389","INCLINATION":"53.0534","CLASSIFICATION_TYPE":"U","REF_FRAME":"TEME","BSTAR":"-0.00000172940000","FILE":"3216827","MEAN_ANOMALY":"273.0942","TLE_LINE2":"2 46756  53.0534 193.9150 0001675  87.0239 273.0942 15.06395059 59325","MEAN_MOTION_DOT":"-0.00000307","TLE_LINE1":"1 46756U 20074T   21320.38957391 -.00000307  00000-0 -17294-5 0  9994","EPHEMERIS_TYPE":"0","DECAY_DATE":null,"MEAN_MOTION":"15.06395059","OBJECT_ID":"2020-074T","LAUNCH_DATE":"2020-10-24","ECCENTRICITY":"0.00016750","RCS_SIZE":"LARGE"},{"RCS_SIZE":"LARGE","ECCENTRICITY":"0.00017390","OBJECT_ID":"2020-074U","LAUNCH_DATE":"2020-10-24","EPHEMERIS_TYPE":"0","TLE_LINE1":"1 46757U 20074U   21320.35271565  .00000202  00000-0  32489-4 0  9998","MEAN_MOTION":"15.06395445","DECAY_DATE":null,"PERIAPSIS":"546.023","MEAN_MOTION_DDOT":"0.0000000000000","OBJECT_NAME":"STARLINK-1926","SITE":"AFETR","RA_OF_ASC_NODE":"194.1034","ELEMENT_SET_NO":"999","GP_ID":"189881005","MEAN_ANOMALY":"288.0196","FILE":"3216827","BSTAR":"0.00003248900000","REF_FRAME":"TEME","MEAN_MOTION_DOT":"0.00000202","TLE_LINE2":"2 46757  53.0544 194.1034 0001739  72.0983 288.0196 15.06395445 59317","INCLINATION":"53.0544","APOAPSIS":"548.432","SEMIMAJOR_AXIS":"6925.363","CLASSIFICATION_TYPE":"U","PERIOD":"95.592","NORAD_CAT_ID":"46757","ARG_OF_PERICENTER":"72.0983","COUNTRY_CODE":"US","OBJECT_TYPE":"PAYLOAD","REV_AT_EPOCH":"5931","EPOCH":"2021-11-16T08:27:54.632160","CENTER_NAME":"EARTH","TIME_SYSTEM":"UTC","MEAN_ELEMENT_THEORY":"SGP4"},{"EPOCH":"2021-11-16T09:06:24.556896","CENTER_NAME":"EARTH","TIME_SYSTEM":"UTC","MEAN_ELEMENT_THEORY":"SGP4","PERIOD":"95.591","NORAD_CAT_ID":"46758","ARG_OF_PERICENTER":"71.5803","REV_AT_EPOCH":"5932","COUNTRY_CODE":"US","OBJECT_TYPE":"PAYLOAD","REF_FRAME":"TEME","BSTAR":"0.00025769000000","FILE":"3216827","MEAN_ANOMALY":"288.5380","TLE_LINE2":"2 46758  53.0542 193.9820 0001784  71.5803 288.5380 15.06411653 59322","MEAN_MOTION_DOT":"0.00003560","SEMIMAJOR_AXIS":"6925.313","APOAPSIS":"548.413","INCLINATION":"53.0542","CLASSIFICATION_TYPE":"U","OBJECT_NAME":"STARLINK-1928","MEAN_MOTION_DDOT":"0.0000000000000","PERIAPSIS":"545.942","RA_OF_ASC_NODE":"193.9820","SITE":"AFETR","ELEMENT_SET_NO":"999","GP_ID":"189881763","MEAN_MOTION":"15.06411653","DECAY_DATE":null,"EPHEMERIS_TYPE":"0","TLE_LINE1":"1 46758U 20074V   21320.37945089  .00003560  00000-0  25769-3 0  9992","ECCENTRICITY":"0.00017840","RCS_SIZE":"LARGE","OBJECT_ID":"2020-074V","LAUNCH_DATE":"2020-10-24"},{"MEAN_MOTION":"15.06408789","DECAY_DATE":null,"EPHEMERIS_TYPE":"0","TLE_LINE1":"1 46759U 20074W   21320.64023716  .00002238  00000-0  16905-3 0  9990","ECCENTRICITY":"0.00017390","RCS_SIZE":"LARGE","OBJECT_ID":"2020-074W","LAUNCH_DATE":"2020-10-24","EPOCH":"2021-11-16T15:21:56.490624","CENTER_NAME":"EARTH","TIME_SYSTEM":"UTC","MEAN_ELEMENT_THEORY":"SGP4","PERIOD":"95.592","NORAD_CAT_ID":"46759","ARG_OF_PERICENTER":"80.9144","REV_AT_EPOCH":"5895","COUNTRY_CODE":"US","OBJECT_TYPE":"PAYLOAD","REF_FRAME":"TEME","BSTAR":"0.00016905000000","MEAN_ANOMALY":"279.2041","FILE":"3216912","TLE_LINE2":"2 46759  53.0538 202.7909 0001739  80.9144 279.2041 15.06408789 58952","MEAN_MOTION_DOT":"0.00002238","SEMIMAJOR_AXIS":"6925.322","INCLINATION":"53.0538","APOAPSIS":"548.391","CLASSIFICATION_TYPE":"U","OBJECT_NAME":"STARLINK-1833","PERIAPSIS":"545.982","MEAN_MOTION_DDOT":"0.0000000000000","RA_OF_ASC_NODE":"202.7909","SITE":"AFETR","ELEMENT_SET_NO":"999","GP_ID":"189884803"},{"LAUNCH_DATE":"2020-10-24","OBJECT_ID":"2020-074X","ECCENTRICITY":"0.00016550","RCS_SIZE":"LARGE","TLE_LINE1":"1 46760U 20074X   21320.38590710  .00002179  00000-0  16514-3 0  9996","EPHEMERIS_TYPE":"0","DECAY_DATE":null,"MEAN_MOTION":"15.06406273","GP_ID":"189881262","ELEMENT_SET_NO":"999","RA_OF_ASC_NODE":"203.9474","SITE":"AFETR","OBJECT_NAME":"STARLINK-1896","PERIAPSIS":"546.048","MEAN_MOTION_DDOT":"0.0000000000000","CLASSIFICATION_TYPE":"U","SEMIMAJOR_AXIS":"6925.329","INCLINATION":"53.0528","APOAPSIS":"548.340","TLE_LINE2":"2 46760  53.0528 203.9474 0001655  77.6927 282.4248 15.06406273 59189","MEAN_MOTION_DOT":"0.00002179","BSTAR":"0.00016514000000","REF_FRAME":"TEME","FILE":"3216827","MEAN_ANOMALY":"282.4248","REV_AT_EPOCH":"5918","COUNTRY_CODE":"US","OBJECT_TYPE":"PAYLOAD","ARG_OF_PERICENTER":"77.6927","NORAD_CAT_ID":"46760","PERIOD":"95.592","MEAN_ELEMENT_THEORY":"SGP4","CENTER_NAME":"EARTH","TIME_SYSTEM":"UTC","EPOCH":"2021-11-16T09:15:42.373440"},{"DECAY_DATE":null,"MEAN_MOTION":"15.06393934","TLE_LINE1":"1 46763U 20074AA  21320.39971084 -.00000362  00000-0 -53750-5 0  9996","EPHEMERIS_TYPE":"0","LAUNCH_DATE":"2020-10-24","OBJECT_ID":"2020-074AA","RCS_SIZE":"LARGE","ECCENTRICITY":"0.00015410","MEAN_ELEMENT_THEORY":"SGP4","CENTER_NAME":"EARTH","TIME_SYSTEM":"UTC","EPOCH":"2021-11-16T09:35:35.016576","COUNTRY_CODE":"US","OBJECT_TYPE":"PAYLOAD","REV_AT_EPOCH":"5918","ARG_OF_PERICENTER":"68.6095","NORAD_CAT_ID":"46763","PERIOD":"95.593","CLASSIFICATION_TYPE":"U","APOAPSIS":"548.299","INCLINATION":"53.0528","SEMIMAJOR_AXIS":"6925.367","MEAN_MOTION_DOT":"-0.00000362","TLE_LINE2":"2 46763  53.0528 203.9007 0001541  68.6095 291.5058 15.06393934 59183","MEAN_ANOMALY":"291.5058","FILE":"3216827","REF_FRAME":"TEME","BSTAR":"-0.00000537500000","GP_ID":"189881506","ELEMENT_SET_NO":"999","SITE":"AFETR","RA_OF_ASC_NODE":"203.9007","MEAN_MOTION_DDOT":"0.0000000000000","PERIAPSIS":"546.165","OBJECT_NAME":"STARLINK-1902"},{"COUNTRY_CODE":"US","OBJECT_TYPE":"PAYLOAD","REV_AT_EPOCH":"5918","ARG_OF_PERICENTER":"74.7029","NORAD_CAT_ID":"46764","PERIOD":"95.592","MEAN_ELEMENT_THEORY":"SGP4","TIME_SYSTEM":"UTC","CENTER_NAME":"EARTH","EPOCH":"2021-11-16T09:05:06.032256","ELEMENT_SET_NO":"999","GP_ID":"189882264","SITE":"AFETR","RA_OF_ASC_NODE":"203.9711","MEAN_MOTION_DDOT":"0.0000000000000","PERIAPSIS":"546.065","OBJECT_NAME":"STARLINK-1903","CLASSIFICATION_TYPE":"U","INCLINATION":"53.0530","APOAPSIS":"548.367","SEMIMAJOR_AXIS":"6925.351","MEAN_MOTION_DOT":"0.00001856","TLE_LINE2":"2 46764  53.0530 203.9711 0001662  74.7029 285.4144 15.06399256 59189","MEAN_ANOMALY":"285.4144","FILE":"3216827","BSTAR":"0.00014348000000","REF_FRAME":"TEME","TLE_LINE1":"1 46764U 20074AB  21320.37854204  .00001856  00000-0  14348-3 0  9994","EPHEMERIS_TYPE":"0","DECAY_DATE":null,"MEAN_MOTION":"15.06399256","LAUNCH_DATE":"2020-10-24","OBJECT_ID":"2020-074AB","RCS_SIZE":"LARGE","ECCENTRICITY":"0.00016620"}];
